<?xml version="1.0" encoding="UTF-8"?>
<ndm xmlns:xsi="http://www.w3.org/2001/XMLSchema-instance" xsi:noNamespaceSchemaLocation="https://sanaregistry.org/r/ndmxml_unqualified/ndmxml-2.0.0-master-2.0.xsd">
<omm id="CCSDS_OMM_VERS" version="2.0">
<header><CREATION_DATE/><ORIGINATOR/></header><body><segment><metadata><OBJECT_NAME>ORBCOMM FM20</OBJECT_NAME><OBJECT_ID>1998-046D</OBJECT_ID><CENTER_NAME>EARTH</CENTER_NAME><REF_FRAME>TEME</REF_FRAME><TIME_SYSTEM>UTC</TIME_SYSTEM><MEAN_ELEMENT_THEORY>SGP4</MEAN_ELEMENT_THEORY></metadata><data><meanElements><EPOCH>2025-06-22T07:57:38.276064</EPOCH><MEAN_MOTION>14.37218809</MEAN_MOTION><ECCENTRICITY>.0003052</ECCENTRICITY><INCLINATION>44.9928</INCLINATION><RA_OF_ASC_NODE>156.9067</RA_OF_ASC_NODE><ARG_OF_PERICENTER>300.3070</ARG_OF_PERICENTER><MEAN_ANOMALY>59.7476</MEAN_ANOMALY></meanElements><tleParameters><EPHEMERIS_TYPE>0</EPHEMERIS_TYPE><CLASSIFICATION_TYPE>U</CLASSIFICATION_TYPE><NORAD_CAT_ID>25416</NORAD_CAT_ID><ELEMENT_SET_NO>999</ELEMENT_SET_NO><REV_AT_EPOCH>40500</REV_AT_EPOCH><BSTAR>.20625E-3</BSTAR><MEAN_MOTION_DOT>.478E-5</MEAN_MOTION_DOT><MEAN_MOTION_DDOT>0</MEAN_MOTION_DDOT></tleParameters></data></segment></body></omm>
<omm id="CCSDS_OMM_VERS" version="2.0">
<header><CREATION_DATE/><ORIGINATOR/></header><body><segment><metadata><OBJECT_NAME>ORBCOMM FM16</OBJECT_NAME><OBJECT_ID>1998-046E</OBJECT_ID><CENTER_NAME>EARTH</CENTER_NAME><REF_FRAME>TEME</REF_FRAME><TIME_SYSTEM>UTC</TIME_SYSTEM><MEAN_ELEMENT_THEORY>SGP4</MEAN_ELEMENT_THEORY></metadata><data><meanElements><EPOCH>2025-06-22T11:03:02.666592</EPOCH><MEAN_MOTION>14.38923842</MEAN_MOTION><ECCENTRICITY>.0006684</ECCENTRICITY><INCLINATION>44.9924</INCLINATION><RA_OF_ASC_NODE>147.7990</RA_OF_ASC_NODE><ARG_OF_PERICENTER>317.7111</ARG_OF_PERICENTER><MEAN_ANOMALY>42.3222</MEAN_ANOMALY></meanElements><tleParameters><EPHEMERIS_TYPE>0</EPHEMERIS_TYPE><CLASSIFICATION_TYPE>U</CLASSIFICATION_TYPE><NORAD_CAT_ID>25417</NORAD_CAT_ID><ELEMENT_SET_NO>999</ELEMENT_SET_NO><REV_AT_EPOCH>40501</REV_AT_EPOCH><BSTAR>.29753E-3</BSTAR><MEAN_MOTION_DOT>.783E-5</MEAN_MOTION_DOT><MEAN_MOTION_DDOT>0</MEAN_MOTION_DDOT></tleParameters></data></segment></body></omm>
<omm id="CCSDS_OMM_VERS" version="2.0">
<header><CREATION_DATE/><ORIGINATOR/></header><body><segment><metadata><OBJECT_NAME>ORBCOMM FM15</OBJECT_NAME><OBJECT_ID>1998-046F</OBJECT_ID><CENTER_NAME>EARTH</CENTER_NAME><REF_FRAME>TEME</REF_FRAME><TIME_SYSTEM>UTC</TIME_SYSTEM><MEAN_ELEMENT_THEORY>SGP4</MEAN_ELEMENT_THEORY></metadata><data><meanElements><EPOCH>2025-06-22T08:50:32.529984</EPOCH><MEAN_MOTION>14.38566641</MEAN_MOTION><ECCENTRICITY>.0006289</ECCENTRICITY><INCLINATION>44.9953</INCLINATION><RA_OF_ASC_NODE>153.3959</RA_OF_ASC_NODE><ARG_OF_PERICENTER>315.5195</ARG_OF_PERICENTER><MEAN_ANOMALY>44.5148</MEAN_ANOMALY></meanElements><tleParameters><EPHEMERIS_TYPE>0</EPHEMERIS_TYPE><CLASSIFICATION_TYPE>U</CLASSIFICATION_TYPE><NORAD_CAT_ID>25418</NORAD_CAT_ID><ELEMENT_SET_NO>999</ELEMENT_SET_NO><REV_AT_EPOCH>40499</REV_AT_EPOCH><BSTAR>.23978E-3</BSTAR><MEAN_MOTION_DOT>.598E-5</MEAN_MOTION_DOT><MEAN_MOTION_DDOT>0</MEAN_MOTION_DDOT></tleParameters></data></segment></body></omm>
<omm id="CCSDS_OMM_VERS" version="2.0">
<header><CREATION_DATE/><ORIGINATOR/></header><body><segment><metadata><OBJECT_NAME>ORBCOMM FM14</OBJECT_NAME><OBJECT_ID>1998-046G</OBJECT_ID><CENTER_NAME>EARTH</CENTER_NAME><REF_FRAME>TEME</REF_FRAME><TIME_SYSTEM>UTC</TIME_SYSTEM><MEAN_ELEMENT_THEORY>SGP4</MEAN_ELEMENT_THEORY></metadata><data><meanElements><EPOCH>2025-06-22T07:34:19.493760</EPOCH><MEAN_MOTION>14.38927135</MEAN_MOTION><ECCENTRICITY>.000523</ECCENTRICITY><INCLINATION>44.9943</INCLINATION><RA_OF_ASC_NODE>151.8696</RA_OF_ASC_NODE><ARG_OF_PERICENTER>310.8267</ARG_OF_PERICENTER><MEAN_ANOMALY>49.2128</MEAN_ANOMALY></meanElements><tleParameters><EPHEMERIS_TYPE>0</EPHEMERIS_TYPE><CLASSIFICATION_TYPE>U</CLASSIFICATION_TYPE><NORAD_CAT_ID>25419</NORAD_CAT_ID><ELEMENT_SET_NO>999</ELEMENT_SET_NO><REV_AT_EPOCH>40495</REV_AT_EPOCH><BSTAR>.23971E-3</BSTAR><MEAN_MOTION_DOT>.603E-5</MEAN_MOTION_DOT><MEAN_MOTION_DDOT>0</MEAN_MOTION_DDOT></tleParameters></data></segment></body></omm>
<omm id="CCSDS_OMM_VERS" version="2.0">
<header><CREATION_DATE/><ORIGINATOR/></header><body><segment><metadata><OBJECT_NAME>ORBCOMM FM13</OBJECT_NAME><OBJECT_ID>1998-046H</OBJECT_ID><CENTER_NAME>EARTH</CENTER_NAME><REF_FRAME>TEME</REF_FRAME><TIME_SYSTEM>UTC</TIME_SYSTEM><MEAN_ELEMENT_THEORY>SGP4</MEAN_ELEMENT_THEORY></metadata><data><meanElements><EPOCH>2025-06-22T08:45:00.342720</EPOCH><MEAN_MOTION>14.37681086</MEAN_MOTION><ECCENTRICITY>.0007341</ECCENTRICITY><INCLINATION>44.9960</INCLINATION><RA_OF_ASC_NODE>159.6636</RA_OF_ASC_NODE><ARG_OF_PERICENTER>300.9229</ARG_OF_PERICENTER><MEAN_ANOMALY>59.0897</MEAN_ANOMALY></meanElements><tleParameters><EPHEMERIS_TYPE>0</EPHEMERIS_TYPE><CLASSIFICATION_TYPE>U</CLASSIFICATION_TYPE><NORAD_CAT_ID>25420</NORAD_CAT_ID><ELEMENT_SET_NO>999</ELEMENT_SET_NO><REV_AT_EPOCH>40398</REV_AT_EPOCH><BSTAR>.22104E-3</BSTAR><MEAN_MOTION_DOT>.528E-5</MEAN_MOTION_DOT><MEAN_MOTION_DDOT>0</MEAN_MOTION_DDOT></tleParameters></data></segment></body></omm>
<omm id="CCSDS_OMM_VERS" version="2.0">
<header><CREATION_DATE/><ORIGINATOR/></header><body><segment><metadata><OBJECT_NAME>ORBCOMM FM21</OBJECT_NAME><OBJECT_ID>1998-053A</OBJECT_ID><CENTER_NAME>EARTH</CENTER_NAME><REF_FRAME>TEME</REF_FRAME><TIME_SYSTEM>UTC</TIME_SYSTEM><MEAN_ELEMENT_THEORY>SGP4</MEAN_ELEMENT_THEORY></metadata><data><meanElements><EPOCH>2025-06-22T12:16:00.161472</EPOCH><MEAN_MOTION>14.37360079</MEAN_MOTION><ECCENTRICITY>.0003614</ECCENTRICITY><INCLINATION>45.0077</INCLINATION><RA_OF_ASC_NODE>244.2826</RA_OF_ASC_NODE><ARG_OF_PERICENTER>244.6726</ARG_OF_PERICENTER><MEAN_ANOMALY>115.3748</MEAN_ANOMALY></meanElements><tleParameters><EPHEMERIS_TYPE>0</EPHEMERIS_TYPE><CLASSIFICATION_TYPE>U</CLASSIFICATION_TYPE><NORAD_CAT_ID>25475</NORAD_CAT_ID><ELEMENT_SET_NO>999</ELEMENT_SET_NO><REV_AT_EPOCH>39801</REV_AT_EPOCH><BSTAR>.16639E-3</BSTAR><MEAN_MOTION_DOT>.359E-5</MEAN_MOTION_DOT><MEAN_MOTION_DDOT>0</MEAN_MOTION_DDOT></tleParameters></data></segment></body></omm>
<omm id="CCSDS_OMM_VERS" version="2.0">
<header><CREATION_DATE/><ORIGINATOR/></header><body><segment><metadata><OBJECT_NAME>ORBCOMM FM22</OBJECT_NAME><OBJECT_ID>1998-053B</OBJECT_ID><CENTER_NAME>EARTH</CENTER_NAME><REF_FRAME>TEME</REF_FRAME><TIME_SYSTEM>UTC</TIME_SYSTEM><MEAN_ELEMENT_THEORY>SGP4</MEAN_ELEMENT_THEORY></metadata><data><meanElements><EPOCH>2025-06-22T13:03:43.398720</EPOCH><MEAN_MOTION>14.38402274</MEAN_MOTION><ECCENTRICITY>.0005528</ECCENTRICITY><INCLINATION>45.0065</INCLINATION><RA_OF_ASC_NODE>238.9351</RA_OF_ASC_NODE><ARG_OF_PERICENTER>248.5385</ARG_OF_PERICENTER><MEAN_ANOMALY>111.4874</MEAN_ANOMALY></meanElements><tleParameters><EPHEMERIS_TYPE>0</EPHEMERIS_TYPE><CLASSIFICATION_TYPE>U</CLASSIFICATION_TYPE><NORAD_CAT_ID>25476</NORAD_CAT_ID><ELEMENT_SET_NO>999</ELEMENT_SET_NO><REV_AT_EPOCH>39804</REV_AT_EPOCH><BSTAR>.21132E-3</BSTAR><MEAN_MOTION_DOT>.508E-5</MEAN_MOTION_DOT><MEAN_MOTION_DDOT>0</MEAN_MOTION_DDOT></tleParameters></data></segment></body></omm>
<omm id="CCSDS_OMM_VERS" version="2.0">
<header><CREATION_DATE/><ORIGINATOR/></header><body><segment><metadata><OBJECT_NAME>ORBCOMM FM23</OBJECT_NAME><OBJECT_ID>1998-053C</OBJECT_ID><CENTER_NAME>EARTH</CENTER_NAME><REF_FRAME>TEME</REF_FRAME><TIME_SYSTEM>UTC</TIME_SYSTEM><MEAN_ELEMENT_THEORY>SGP4</MEAN_ELEMENT_THEORY></metadata><data><meanElements><EPOCH>2025-06-22T13:56:10.428864</EPOCH><MEAN_MOTION>14.37543587</MEAN_MOTION><ECCENTRICITY>.0004607</ECCENTRICITY><INCLINATION>45.0075</INCLINATION><RA_OF_ASC_NODE>246.0692</RA_OF_ASC_NODE><ARG_OF_PERICENTER>243.2142</ARG_OF_PERICENTER><MEAN_ANOMALY>116.8235</MEAN_ANOMALY></meanElements><tleParameters><EPHEMERIS_TYPE>0</EPHEMERIS_TYPE><CLASSIFICATION_TYPE>U</CLASSIFICATION_TYPE><NORAD_CAT_ID>25477</NORAD_CAT_ID><ELEMENT_SET_NO>999</ELEMENT_SET_NO><REV_AT_EPOCH>39817</REV_AT_EPOCH><BSTAR>.20205E-3</BSTAR><MEAN_MOTION_DOT>.469E-5</MEAN_MOTION_DOT><MEAN_MOTION_DDOT>0</MEAN_MOTION_DDOT></tleParameters></data></segment></body></omm>

</ndm>
