ORBCOMM FM20            
1 25416U 98046D   25173.33169301  .00000478  00000+0  20625-3 0  9995
2 25416  44.9928 156.9067 0003052 300.3070  59.7476 14.37218809405003
ORBCOMM FM16            
1 25417U 98046E   25173.46044753  .00000783  00000+0  29753-3 0  9993
2 25417  44.9924 147.7990 0006684 317.7111  42.3222 14.38923842405014
ORBCOMM FM15            
1 25418U 98046F   25173.36843206  .00000598  00000+0  23978-3 0  9990
2 25418  44.9953 153.3959 0006289 315.5195  44.5148 14.38566641404991
ORBCOMM FM14            
1 25419U 98046G   25173.31550340  .00000603  00000+0  23971-3 0  9990
2 25419  44.9943 151.8696 0005230 310.8267  49.2128 14.38927135404950
ORBCOMM FM13            
1 25420U 98046H   25173.36458730  .00000528  00000+0  22104-3 0  9990
2 25420  44.9960 159.6636 0007341 300.9229  59.0897 14.37681086403989
ORBCOMM FM21            
1 25475U 98053A   25173.51111298  .00000359  00000+0  16639-3 0  9998
2 25475  45.0077 244.2826 0003614 244.6726 115.3748 14.37360079398011
ORBCOMM FM22            
1 25476U 98053B   25173.54425230  .00000508  00000+0  21132-3 0  9996
2 25476  45.0065 238.9351 0005528 248.5385 111.4874 14.38402274398047
ORBCOMM FM23            
1 25477U 98053C   25173.58067626  .00000469  00000+0  20205-3 0  9998
2 25477  45.0075 246.0692 0004607 243.2142 116.8235 14.37543587398173
